HORYU-4                 
1 41340U 16012D   26095.49731924  .00128616  00000+0  10615-2 0  9991
2 41340  30.9906 239.7657 0006033  43.3550 316.7579 15.68798881559314
RAVAN                   
1 41849U 16067B   26095.61096935  .00046549  00000+0  86893-3 0  9991
2 41849  97.9983 337.1519 0004282 242.8252 117.2561 15.48635960516443
CELTEE 1                
1 41850U 16067C   26095.56306391  .00007886  00000+0  38063-3 0  9994
2 41850  98.0766 317.1756 0002252 106.2531 253.8950 15.18975890514853
OPTICUBE 04             
1 41851U 16067D   26095.82499998  .00002957  00000+0  18917-3 0  9990
2 41851  98.0780 304.3141 0015819   8.1194 352.0286 15.09360997514258
AEROCUBE 8D             
1 41852U 16067E   26095.59759754  .00009315  00000+0  39459-3 0  9993
2 41852  98.0781 320.2630 0004306  45.4853 314.6733 15.23402574515015
AEROCUBE 8C             
1 41853U 16067F   26095.89661711  .00010045  00000+0  42220-3 0  9994
2 41853  98.0652 317.9072 0004343 323.3292  36.7646 15.23639467515054
CORVUS BC2              
1 42846U 17042X   26095.37615846  .00005095  00000+0  35440-3 0  9997
2 42846  97.3996 259.6109 0013215   9.4076 350.7396 15.05844910476107
CORVUS BC1              
1 42847U 17042Y   26095.44553764  .00004327  00000+0  30031-3 0  9994
2 42847  97.4030 260.4428 0011326 346.1605  13.9310 15.06031358476145
MAKERSAT 0              
1 43016U 17073D   26095.61046917  .00024999  00000+0  72642-3 0  9994
2 43016  97.4720 337.6958 0114325 169.8133 190.5464 15.29101770455368
SIRION PATHFINDER-2     
1 43759U 18099B   26095.68862446  .00007563  00000+0  42092-3 0  9991
2 43759  97.4329 146.4762 0008916 181.2614 178.8597 15.13890526401652
CORVUS BC4              
1 43767U 18099K   26095.86336059  .00006113  00000+0  36024-3 0  9994
2 43767  97.4150 140.9619 0006955 245.5932 114.4573 15.11923216401472
M2 PATHFINDER           
1 45727U 20037E   26095.48640869  .00003914  00000+0  28475-3 0  9999
2 45727  97.8157 285.9049 0012284  43.1820 317.0366 15.04355735314569
NETSAT-4                
1 46504U 20068U   26095.47531637  .00021812  00000+0  52117-3 0  9995
2 46504  97.8638  98.0075 0004916 198.7202 161.3863 15.41519381304564
NETSAT-3                
1 46505U 20068V   26095.74836243  .00024309  00000+0  60520-3 0  9998
2 46505  97.8682  96.6175 0004060 216.2678 143.8292 15.40252682304526
NETSAT-1                
1 46506U 20068W   26095.52168094  .00016506  00000+0  52086-3 0  9995
2 46506  97.8758  91.5248 0003200 253.0342 107.0548 15.32938460304160
NETSAT-2                
1 46507U 20068X   26095.72980176  .00028587  00000+0  64870-3 0  9997
2 46507  97.8656  97.9501 0002223 224.5506 135.5562 15.43022165304552
GREENCUBE (IO-117)      
1 53109U 22080E   26094.56827725 -.00000003  00000+0  00000+0 0  9995
2 53109  70.1528 323.8593 0009014 305.8170  54.1652  6.42583190 87336
