[{"OBJECT_NAME":"HORYU-4","OBJECT_ID":"2016-012D","EPOCH":"2026-04-05T11:56:08.382336","MEAN_MOTION":15.68798881,"ECCENTRICITY":0.00060335,"INCLINATION":30.9906,"RA_OF_ASC_NODE":239.7657,"ARG_OF_PERICENTER":43.355,"MEAN_ANOMALY":316.7579,"EPHEMERIS_TYPE":0,"CLASSIFICATION_TYPE":"U","NORAD_CAT_ID":41340,"ELEMENT_SET_NO":999,"REV_AT_EPOCH":55931,"BSTAR":0.0010615086,"MEAN_MOTION_DOT":0.00128616,"MEAN_MOTION_DDOT":0},{"OBJECT_NAME":"RAVAN","OBJECT_ID":"2016-067B","EPOCH":"2026-04-05T14:39:47.751840","MEAN_MOTION":15.4863596,"ECCENTRICITY":0.0004282,"INCLINATION":97.9983,"RA_OF_ASC_NODE":337.1519,"ARG_OF_PERICENTER":242.8252,"MEAN_ANOMALY":117.2561,"EPHEMERIS_TYPE":0,"CLASSIFICATION_TYPE":"U","NORAD_CAT_ID":41849,"ELEMENT_SET_NO":999,"REV_AT_EPOCH":51644,"BSTAR":0.00086893,"MEAN_MOTION_DOT":0.00046549,"MEAN_MOTION_DDOT":0},{"OBJECT_NAME":"CELTEE 1","OBJECT_ID":"2016-067C","EPOCH":"2026-04-05T13:30:48.721824","MEAN_MOTION":15.1897589,"ECCENTRICITY":0.0002252,"INCLINATION":98.0766,"RA_OF_ASC_NODE":317.1756,"ARG_OF_PERICENTER":106.2531,"MEAN_ANOMALY":253.895,"EPHEMERIS_TYPE":0,"CLASSIFICATION_TYPE":"U","NORAD_CAT_ID":41850,"ELEMENT_SET_NO":999,"REV_AT_EPOCH":51485,"BSTAR":0.00038063,"MEAN_MOTION_DOT":7.886e-5,"MEAN_MOTION_DDOT":0},{"OBJECT_NAME":"OPTICUBE 04","OBJECT_ID":"2016-067D","EPOCH":"2026-04-05T19:47:59.998272","MEAN_MOTION":15.09360997,"ECCENTRICITY":0.0015819,"INCLINATION":98.078,"RA_OF_ASC_NODE":304.3141,"ARG_OF_PERICENTER":8.1194,"MEAN_ANOMALY":352.0286,"EPHEMERIS_TYPE":0,"CLASSIFICATION_TYPE":"U","NORAD_CAT_ID":41851,"ELEMENT_SET_NO":999,"REV_AT_EPOCH":51425,"BSTAR":0.00018917,"MEAN_MOTION_DOT":2.957e-5,"MEAN_MOTION_DDOT":0},{"OBJECT_NAME":"AEROCUBE 8D","OBJECT_ID":"2016-067E","EPOCH":"2026-04-05T14:20:32.427456","MEAN_MOTION":15.23402574,"ECCENTRICITY":0.0004306,"INCLINATION":98.0781,"RA_OF_ASC_NODE":320.263,"ARG_OF_PERICENTER":45.4853,"MEAN_ANOMALY":314.6733,"EPHEMERIS_TYPE":0,"CLASSIFICATION_TYPE":"U","NORAD_CAT_ID":41852,"ELEMENT_SET_NO":999,"REV_AT_EPOCH":51501,"BSTAR":0.00039459,"MEAN_MOTION_DOT":9.315e-5,"MEAN_MOTION_DDOT":0},{"OBJECT_NAME":"AEROCUBE 8C","OBJECT_ID":"2016-067F","EPOCH":"2026-04-05T21:31:07.718304","MEAN_MOTION":15.23639467,"ECCENTRICITY":0.0004343,"INCLINATION":98.0652,"RA_OF_ASC_NODE":317.9072,"ARG_OF_PERICENTER":323.3292,"MEAN_ANOMALY":36.7646,"EPHEMERIS_TYPE":0,"CLASSIFICATION_TYPE":"U","NORAD_CAT_ID":41853,"ELEMENT_SET_NO":999,"REV_AT_EPOCH":51505,"BSTAR":0.0004222,"MEAN_MOTION_DOT":0.00010045,"MEAN_MOTION_DDOT":0},{"OBJECT_NAME":"CORVUS BC2","OBJECT_ID":"2017-042X","EPOCH":"2026-04-05T09:01:40.090944","MEAN_MOTION":15.0584491,"ECCENTRICITY":0.00132159,"INCLINATION":97.3996,"RA_OF_ASC_NODE":259.6109,"ARG_OF_PERICENTER":9.4076,"MEAN_ANOMALY":350.7396,"EPHEMERIS_TYPE":0,"CLASSIFICATION_TYPE":"U","NORAD_CAT_ID":42846,"ELEMENT_SET_NO":999,"REV_AT_EPOCH":47610,"BSTAR":0.00035440252,"MEAN_MOTION_DOT":5.095e-5,"MEAN_MOTION_DDOT":0},{"OBJECT_NAME":"CORVUS BC1","OBJECT_ID":"2017-042Y","EPOCH":"2026-04-05T10:41:34.452096","MEAN_MOTION":15.06031358,"ECCENTRICITY":0.0011326,"INCLINATION":97.403,"RA_OF_ASC_NODE":260.4428,"ARG_OF_PERICENTER":346.1605,"MEAN_ANOMALY":13.931,"EPHEMERIS_TYPE":0,"CLASSIFICATION_TYPE":"U","NORAD_CAT_ID":42847,"ELEMENT_SET_NO":999,"REV_AT_EPOCH":47614,"BSTAR":0.00030031,"MEAN_MOTION_DOT":4.327e-5,"MEAN_MOTION_DDOT":0},{"OBJECT_NAME":"MAKERSAT 0","OBJECT_ID":"2017-073D","EPOCH":"2026-04-05T14:39:04.536288","MEAN_MOTION":15.2910177,"ECCENTRICITY":0.0114325,"INCLINATION":97.472,"RA_OF_ASC_NODE":337.6958,"ARG_OF_PERICENTER":169.8133,"MEAN_ANOMALY":190.5464,"EPHEMERIS_TYPE":0,"CLASSIFICATION_TYPE":"U","NORAD_CAT_ID":43016,"ELEMENT_SET_NO":999,"REV_AT_EPOCH":45536,"BSTAR":0.00072642,"MEAN_MOTION_DOT":0.00024999,"MEAN_MOTION_DDOT":0},{"OBJECT_NAME":"SIRION PATHFINDER-2","OBJECT_ID":"2018-099B","EPOCH":"2026-04-05T16:31:37.153344","MEAN_MOTION":15.13890526,"ECCENTRICITY":0.0008916,"INCLINATION":97.4329,"RA_OF_ASC_NODE":146.4762,"ARG_OF_PERICENTER":181.2614,"MEAN_ANOMALY":178.8597,"EPHEMERIS_TYPE":0,"CLASSIFICATION_TYPE":"U","NORAD_CAT_ID":43759,"ELEMENT_SET_NO":999,"REV_AT_EPOCH":40165,"BSTAR":0.00042092,"MEAN_MOTION_DOT":7.563e-5,"MEAN_MOTION_DDOT":0},{"OBJECT_NAME":"CORVUS BC4","OBJECT_ID":"2018-099K","EPOCH":"2026-04-05T20:43:14.354976","MEAN_MOTION":15.11923216,"ECCENTRICITY":0.0006955,"INCLINATION":97.415,"RA_OF_ASC_NODE":140.9619,"ARG_OF_PERICENTER":245.5932,"MEAN_ANOMALY":114.4573,"EPHEMERIS_TYPE":0,"CLASSIFICATION_TYPE":"U","NORAD_CAT_ID":43767,"ELEMENT_SET_NO":999,"REV_AT_EPOCH":40147,"BSTAR":0.00036024,"MEAN_MOTION_DOT":6.113e-5,"MEAN_MOTION_DDOT":0},{"OBJECT_NAME":"M2 PATHFINDER","OBJECT_ID":"2020-037E","EPOCH":"2026-04-05T11:40:25.710816","MEAN_MOTION":15.04355735,"ECCENTRICITY":0.00122847,"INCLINATION":97.8157,"RA_OF_ASC_NODE":285.9049,"ARG_OF_PERICENTER":43.182,"MEAN_ANOMALY":317.0366,"EPHEMERIS_TYPE":0,"CLASSIFICATION_TYPE":"U","NORAD_CAT_ID":45727,"ELEMENT_SET_NO":999,"REV_AT_EPOCH":31456,"BSTAR":0.00028474623,"MEAN_MOTION_DOT":3.914e-5,"MEAN_MOTION_DDOT":0},{"OBJECT_NAME":"NETSAT-4","OBJECT_ID":"2020-068U","EPOCH":"2026-04-05T11:24:27.334368","MEAN_MOTION":15.41519381,"ECCENTRICITY":0.00049169,"INCLINATION":97.8638,"RA_OF_ASC_NODE":98.0075,"ARG_OF_PERICENTER":198.7202,"MEAN_ANOMALY":161.3863,"EPHEMERIS_TYPE":0,"CLASSIFICATION_TYPE":"U","NORAD_CAT_ID":46504,"ELEMENT_SET_NO":999,"REV_AT_EPOCH":30456,"BSTAR":0.00052116627,"MEAN_MOTION_DOT":0.00021812,"MEAN_MOTION_DDOT":0},{"OBJECT_NAME":"NETSAT-3","OBJECT_ID":"2020-068V","EPOCH":"2026-04-05T17:57:38.513952","MEAN_MOTION":15.40252682,"ECCENTRICITY":0.000406,"INCLINATION":97.8682,"RA_OF_ASC_NODE":96.6175,"ARG_OF_PERICENTER":216.2678,"MEAN_ANOMALY":143.8292,"EPHEMERIS_TYPE":0,"CLASSIFICATION_TYPE":"U","NORAD_CAT_ID":46505,"ELEMENT_SET_NO":999,"REV_AT_EPOCH":30452,"BSTAR":0.0006052,"MEAN_MOTION_DOT":0.00024309,"MEAN_MOTION_DDOT":0},{"OBJECT_NAME":"NETSAT-1","OBJECT_ID":"2020-068W","EPOCH":"2026-04-05T12:31:13.233216","MEAN_MOTION":15.3293846,"ECCENTRICITY":0.00032002,"INCLINATION":97.8758,"RA_OF_ASC_NODE":91.5248,"ARG_OF_PERICENTER":253.0342,"MEAN_ANOMALY":107.0548,"EPHEMERIS_TYPE":0,"CLASSIFICATION_TYPE":"U","NORAD_CAT_ID":46506,"ELEMENT_SET_NO":999,"REV_AT_EPOCH":30416,"BSTAR":0.00052086418,"MEAN_MOTION_DOT":0.00016506,"MEAN_MOTION_DDOT":0},{"OBJECT_NAME":"NETSAT-2","OBJECT_ID":"2020-068X","EPOCH":"2026-04-05T17:30:54.872064","MEAN_MOTION":15.43022165,"ECCENTRICITY":0.0002223,"INCLINATION":97.8656,"RA_OF_ASC_NODE":97.9501,"ARG_OF_PERICENTER":224.5506,"MEAN_ANOMALY":135.5562,"EPHEMERIS_TYPE":0,"CLASSIFICATION_TYPE":"U","NORAD_CAT_ID":46507,"ELEMENT_SET_NO":999,"REV_AT_EPOCH":30455,"BSTAR":0.0006487,"MEAN_MOTION_DOT":0.00028587,"MEAN_MOTION_DDOT":0},{"OBJECT_NAME":"GREENCUBE (IO-117)","OBJECT_ID":"2022-080E","EPOCH":"2026-04-04T13:38:19.154400","MEAN_MOTION":6.4258319,"ECCENTRICITY":0.0009014,"INCLINATION":70.1528,"RA_OF_ASC_NODE":323.8593,"ARG_OF_PERICENTER":305.817,"MEAN_ANOMALY":54.1652,"EPHEMERIS_TYPE":0,"CLASSIFICATION_TYPE":"U","NORAD_CAT_ID":53109,"ELEMENT_SET_NO":999,"REV_AT_EPOCH":8733,"BSTAR":0,"MEAN_MOTION_DOT":-3.0e-8,"MEAN_MOTION_DDOT":0}]
